[{"OBJECT_NAME":"NUSAT-44 (MARIA MITCHELL)","OBJECT_ID":"2024-043AA","EPOCH":"2026-03-09T22:12:18.524160","MEAN_MOTION":15.29764305,"ECCENTRICITY":0.0007331,"INCLINATION":97.5299,"RA_OF_ASC_NODE":207.7691,"ARG_OF_PERICENTER":214.9017,"MEAN_ANOMALY":145.1743,"EPHEMERIS_TYPE":0,"CLASSIFICATION_TYPE":"U","NORAD_CAT_ID":59122,"ELEMENT_SET_NO":999,"REV_AT_EPOCH":11209,"BSTAR":0.00061063193,"MEAN_MOTION_DOT":0.00017562,"MEAN_MOTION_DDOT":0},{"OBJECT_NAME":"STARLINK-31443","OBJECT_ID":"2024-062V","EPOCH":"2026-03-09T19:16:57.761184","MEAN_MOTION":15.30194544,"ECCENTRICITY":0.00011143,"INCLINATION":53.1598,"RA_OF_ASC_NODE":242.5387,"ARG_OF_PERICENTER":90.0729,"MEAN_ANOMALY":270.0399,"EPHEMERIS_TYPE":0,"CLASSIFICATION_TYPE":"U","NORAD_CAT_ID":59393,"ELEMENT_SET_NO":999,"REV_AT_EPOCH":10986,"BSTAR":-5.166024e-5,"MEAN_MOTION_DOT":-1.888e-5,"MEAN_MOTION_DDOT":0}]
